STARLINK-36607          
1 67620U 26020D   26039.58335648 -.01129264  00000+0 -57459-2 0  9991
2 67620  42.9994 319.2171 0001614 262.3494 350.5006 15.82877295  2719
STARLINK-36615          
1 67621U 26020E   26039.58335648 -.00848691  00000+0 -43121-2 0  9994
2 67621  42.9995 319.2263 0001721 266.9867 342.3116 15.82629458  2713
STARLINK-36614          
1 67622U 26020F   26039.58335648 -.01324874  00000+0 -68137-2 0  9992
2 67622  42.9995 319.2097 0001540 264.0021 351.8262 15.83080034  2718
STARLINK-36600          
1 67623U 26020G   26039.58335648 -.01533637  00000+0 -77777-2 0  9992
2 67623  42.9996 319.2007 0001188 265.5856 353.8725 15.83329186  2711
STARLINK-36439          
1 67624U 26020H   26039.58335648 -.01742134  00000+0 -88892-2 0  9997
2 67624  42.9994 319.1914 0001412 264.3365 358.7430 15.83601244  2713
STARLINK-36438          
1 67625U 26020J   26039.58335648 -.01825546  00000+0 -90681-2 0  9996
2 67625  42.9995 319.1822 0001478 257.3482   9.2928 15.83790420  2712
STARLINK-36436          
1 67626U 26020K   26039.58335648 -.01809833  00000+0 -88335-2 0  9991
2 67626  42.9994 319.1644 0001544 259.7764  14.0596 15.84128376  2718
STARLINK-36502          
1 67627U 26020L   26039.58335648 -.01824479  00000+0 -89914-2 0  9999
2 67627  42.9997 319.1742 0001625 259.0081  11.0014 15.83950870  2719
STARLINK-36532          
1 67628U 26020M   26039.58335648 -.01833048  00000+0 -88233-2 0  9995
2 67628  42.9995 319.1480 0001922 261.1830  19.0534 15.84446861  2719
STARLINK-36367          
1 67629U 26020N   26039.58335648 -.01726654  00000+0 -85047-2 0  9990
2 67629  42.9996 319.1548 0001614 264.1205  13.5626 15.84297042  2719
STARLINK-36416          
1 67630U 26020P   26039.58335648 -.01830120  00000+0 -87598-2 0  9999
2 67630  42.9995 319.1417 0001608 258.6126  24.1812 15.84562089  2719
STARLINK-36527          
1 67631U 26020Q   26039.58335648 -.01825847  00000+0 -86749-2 0  9997
2 67631  42.9996 319.1340 0001962 264.0355  21.8106 15.84702818  2710
