CCSDS_OMM_VERS = 2.0
CREATION_DATE  = 
ORIGINATOR     = 

OBJECT_NAME    = STARLINK-36607
OBJECT_ID      = 2026-020D
CENTER_NAME    = EARTH
REF_FRAME      = TEME
TIME_SYSTEM    = UTC
MEAN_ELEMENT_THEORY = SGP/SGP4

EPOCH          = 2026-02-08T14:00:01.999872
MEAN_MOTION    = 15.82877295
ECCENTRICITY   = .0001614
INCLINATION    = 42.9994
RA_OF_ASC_NODE = 319.2171
ARG_OF_PERICENTER = 262.3494
MEAN_ANOMALY   = 350.5006

EPHEMERIS_TYPE = 0
CLASSIFICATION_TYPE = U
NORAD_CAT_ID   = 67620
ELEMENT_SET_NO = 999
REV_AT_EPOCH   = 271
BSTAR          = -.57458838E-2
MEAN_MOTION_DOT = -.1129264E-1
MEAN_MOTION_DDOT = 0

CCSDS_OMM_VERS = 2.0
CREATION_DATE  = 
ORIGINATOR     = 

OBJECT_NAME    = STARLINK-36615
OBJECT_ID      = 2026-020E
CENTER_NAME    = EARTH
REF_FRAME      = TEME
TIME_SYSTEM    = UTC
MEAN_ELEMENT_THEORY = SGP/SGP4

EPOCH          = 2026-02-08T14:00:01.999872
MEAN_MOTION    = 15.82629458
ECCENTRICITY   = .00017213
INCLINATION    = 42.9995
RA_OF_ASC_NODE = 319.2263
ARG_OF_PERICENTER = 266.9867
MEAN_ANOMALY   = 342.3116

EPHEMERIS_TYPE = 0
CLASSIFICATION_TYPE = U
NORAD_CAT_ID   = 67621
ELEMENT_SET_NO = 999
REV_AT_EPOCH   = 271
BSTAR          = -.43120861E-2
MEAN_MOTION_DOT = -.848691E-2
MEAN_MOTION_DDOT = 0

CCSDS_OMM_VERS = 2.0
CREATION_DATE  = 
ORIGINATOR     = 

OBJECT_NAME    = STARLINK-36614
OBJECT_ID      = 2026-020F
CENTER_NAME    = EARTH
REF_FRAME      = TEME
TIME_SYSTEM    = UTC
MEAN_ELEMENT_THEORY = SGP/SGP4

EPOCH          = 2026-02-08T14:00:01.999872
MEAN_MOTION    = 15.83080034
ECCENTRICITY   = .00015401
INCLINATION    = 42.9995
RA_OF_ASC_NODE = 319.2097
ARG_OF_PERICENTER = 264.0021
MEAN_ANOMALY   = 351.8262

EPHEMERIS_TYPE = 0
CLASSIFICATION_TYPE = U
NORAD_CAT_ID   = 67622
ELEMENT_SET_NO = 999
REV_AT_EPOCH   = 271
BSTAR          = -.68137458E-2
MEAN_MOTION_DOT = -.1324874E-1
MEAN_MOTION_DDOT = 0

CCSDS_OMM_VERS = 2.0
CREATION_DATE  = 
ORIGINATOR     = 

OBJECT_NAME    = STARLINK-36600
OBJECT_ID      = 2026-020G
CENTER_NAME    = EARTH
REF_FRAME      = TEME
TIME_SYSTEM    = UTC
MEAN_ELEMENT_THEORY = SGP/SGP4

EPOCH          = 2026-02-08T14:00:01.999872
MEAN_MOTION    = 15.83329186
ECCENTRICITY   = .00011883
INCLINATION    = 42.9996
RA_OF_ASC_NODE = 319.2007
ARG_OF_PERICENTER = 265.5856
MEAN_ANOMALY   = 353.8725

EPHEMERIS_TYPE = 0
CLASSIFICATION_TYPE = U
NORAD_CAT_ID   = 67623
ELEMENT_SET_NO = 999
REV_AT_EPOCH   = 271
BSTAR          = -.77776749E-2
MEAN_MOTION_DOT = -.1533637E-1
MEAN_MOTION_DDOT = 0

CCSDS_OMM_VERS = 2.0
CREATION_DATE  = 
ORIGINATOR     = 

OBJECT_NAME    = STARLINK-36439
OBJECT_ID      = 2026-020H
CENTER_NAME    = EARTH
REF_FRAME      = TEME
TIME_SYSTEM    = UTC
MEAN_ELEMENT_THEORY = SGP/SGP4

EPOCH          = 2026-02-08T14:00:01.999872
MEAN_MOTION    = 15.83601244
ECCENTRICITY   = .00014124
INCLINATION    = 42.9994
RA_OF_ASC_NODE = 319.1914
ARG_OF_PERICENTER = 264.3365
MEAN_ANOMALY   = 358.7430

EPHEMERIS_TYPE = 0
CLASSIFICATION_TYPE = U
NORAD_CAT_ID   = 67624
ELEMENT_SET_NO = 999
REV_AT_EPOCH   = 271
BSTAR          = -.88892153E-2
MEAN_MOTION_DOT = -.1742134E-1
MEAN_MOTION_DDOT = 0

CCSDS_OMM_VERS = 2.0
CREATION_DATE  = 
ORIGINATOR     = 

OBJECT_NAME    = STARLINK-36438
OBJECT_ID      = 2026-020J
CENTER_NAME    = EARTH
REF_FRAME      = TEME
TIME_SYSTEM    = UTC
MEAN_ELEMENT_THEORY = SGP/SGP4

EPOCH          = 2026-02-08T14:00:01.999872
MEAN_MOTION    = 15.83790420
ECCENTRICITY   = .00014784
INCLINATION    = 42.9995
RA_OF_ASC_NODE = 319.1822
ARG_OF_PERICENTER = 257.3482
MEAN_ANOMALY   = 9.2928

EPHEMERIS_TYPE = 0
CLASSIFICATION_TYPE = U
NORAD_CAT_ID   = 67625
ELEMENT_SET_NO = 999
REV_AT_EPOCH   = 271
BSTAR          = -.90681473E-2
MEAN_MOTION_DOT = -.1825546E-1
MEAN_MOTION_DDOT = 0

CCSDS_OMM_VERS = 2.0
CREATION_DATE  = 
ORIGINATOR     = 

OBJECT_NAME    = STARLINK-36436
OBJECT_ID      = 2026-020K
CENTER_NAME    = EARTH
REF_FRAME      = TEME
TIME_SYSTEM    = UTC
MEAN_ELEMENT_THEORY = SGP/SGP4

EPOCH          = 2026-02-08T14:00:01.999872
MEAN_MOTION    = 15.84128376
ECCENTRICITY   = .00015449
INCLINATION    = 42.9994
RA_OF_ASC_NODE = 319.1644
ARG_OF_PERICENTER = 259.7764
MEAN_ANOMALY   = 14.0596

EPHEMERIS_TYPE = 0
CLASSIFICATION_TYPE = U
NORAD_CAT_ID   = 67626
ELEMENT_SET_NO = 999
REV_AT_EPOCH   = 271
BSTAR          = -.88335134E-2
MEAN_MOTION_DOT = -.1809833E-1
MEAN_MOTION_DDOT = 0

CCSDS_OMM_VERS = 2.0
CREATION_DATE  = 
ORIGINATOR     = 

OBJECT_NAME    = STARLINK-36502
OBJECT_ID      = 2026-020L
CENTER_NAME    = EARTH
REF_FRAME      = TEME
TIME_SYSTEM    = UTC
MEAN_ELEMENT_THEORY = SGP/SGP4

EPOCH          = 2026-02-08T14:00:01.999872
MEAN_MOTION    = 15.83950870
ECCENTRICITY   = .00016252
INCLINATION    = 42.9997
RA_OF_ASC_NODE = 319.1742
ARG_OF_PERICENTER = 259.0081
MEAN_ANOMALY   = 11.0014

EPHEMERIS_TYPE = 0
CLASSIFICATION_TYPE = U
NORAD_CAT_ID   = 67627
ELEMENT_SET_NO = 999
REV_AT_EPOCH   = 271
BSTAR          = -.89914047E-2
MEAN_MOTION_DOT = -.1824479E-1
MEAN_MOTION_DDOT = 0

CCSDS_OMM_VERS = 2.0
CREATION_DATE  = 
ORIGINATOR     = 

OBJECT_NAME    = STARLINK-36532
OBJECT_ID      = 2026-020M
CENTER_NAME    = EARTH
REF_FRAME      = TEME
TIME_SYSTEM    = UTC
MEAN_ELEMENT_THEORY = SGP/SGP4

EPOCH          = 2026-02-08T14:00:01.999872
MEAN_MOTION    = 15.84446861
ECCENTRICITY   = .00019223
INCLINATION    = 42.9995
RA_OF_ASC_NODE = 319.1480
ARG_OF_PERICENTER = 261.1830
MEAN_ANOMALY   = 19.0534

EPHEMERIS_TYPE = 0
CLASSIFICATION_TYPE = U
NORAD_CAT_ID   = 67628
ELEMENT_SET_NO = 999
REV_AT_EPOCH   = 271
BSTAR          = -.88233221E-2
MEAN_MOTION_DOT = -.1833048E-1
MEAN_MOTION_DDOT = 0

CCSDS_OMM_VERS = 2.0
CREATION_DATE  = 
ORIGINATOR     = 

OBJECT_NAME    = STARLINK-36367
OBJECT_ID      = 2026-020N
CENTER_NAME    = EARTH
REF_FRAME      = TEME
TIME_SYSTEM    = UTC
MEAN_ELEMENT_THEORY = SGP/SGP4

EPOCH          = 2026-02-08T14:00:01.999872
MEAN_MOTION    = 15.84297042
ECCENTRICITY   = .0001614
INCLINATION    = 42.9996
RA_OF_ASC_NODE = 319.1548
ARG_OF_PERICENTER = 264.1205
MEAN_ANOMALY   = 13.5626

EPHEMERIS_TYPE = 0
CLASSIFICATION_TYPE = U
NORAD_CAT_ID   = 67629
ELEMENT_SET_NO = 999
REV_AT_EPOCH   = 271
BSTAR          = -.850465E-2
MEAN_MOTION_DOT = -.1726654E-1
MEAN_MOTION_DDOT = 0

CCSDS_OMM_VERS = 2.0
CREATION_DATE  = 
ORIGINATOR     = 

OBJECT_NAME    = STARLINK-36416
OBJECT_ID      = 2026-020P
CENTER_NAME    = EARTH
REF_FRAME      = TEME
TIME_SYSTEM    = UTC
MEAN_ELEMENT_THEORY = SGP/SGP4

EPOCH          = 2026-02-08T14:00:01.999872
MEAN_MOTION    = 15.84562089
ECCENTRICITY   = .00016085
INCLINATION    = 42.9995
RA_OF_ASC_NODE = 319.1417
ARG_OF_PERICENTER = 258.6126
MEAN_ANOMALY   = 24.1812

EPHEMERIS_TYPE = 0
CLASSIFICATION_TYPE = U
NORAD_CAT_ID   = 67630
ELEMENT_SET_NO = 999
REV_AT_EPOCH   = 271
BSTAR          = -.87597542E-2
MEAN_MOTION_DOT = -.183012E-1
MEAN_MOTION_DDOT = 0

CCSDS_OMM_VERS = 2.0
CREATION_DATE  = 
ORIGINATOR     = 

OBJECT_NAME    = STARLINK-36527
OBJECT_ID      = 2026-020Q
CENTER_NAME    = EARTH
REF_FRAME      = TEME
TIME_SYSTEM    = UTC
MEAN_ELEMENT_THEORY = SGP/SGP4

EPOCH          = 2026-02-08T14:00:01.999872
MEAN_MOTION    = 15.84702818
ECCENTRICITY   = .00019622
INCLINATION    = 42.9996
RA_OF_ASC_NODE = 319.1340
ARG_OF_PERICENTER = 264.0355
MEAN_ANOMALY   = 21.8106

EPHEMERIS_TYPE = 0
CLASSIFICATION_TYPE = U
NORAD_CAT_ID   = 67631
ELEMENT_SET_NO = 999
REV_AT_EPOCH   = 271
BSTAR          = -.86749389E-2
MEAN_MOTION_DOT = -.1825847E-1
MEAN_MOTION_DDOT = 0

